DELTA 2 R/B(1)          
1 20453U 90008B   26076.52049579  .00051669  00000+0  58768-3 0  9996
2 20453  35.6030 123.4199 0082522 331.0794  28.5384 15.56999560927359
COSMOS 2058             
1 20465U 90010A   26076.39441083  .00003191  00000+0  18726-3 0  9990
2 20465  82.4668  39.8351 0008293 317.9350  42.1243 15.11390746943405
SL-14 R/B               
1 20466U 90010B   26076.44323773  .00000427  00000+0  48817-4 0  9996
2 20466  82.4986 260.1032 0018322 274.7867  85.1256 14.83575880929633
SL-14 R/B               
1 20511U 90018B   26076.40101564  .00000456  00000+0  54232-4 0  9993
2 20511  82.5216 215.8822 0017547  68.7405 291.5681 14.82153253923726
HST                     
1 20580U 90037B   26076.44616889  .00005963  00000+0  19419-3 0  9990
2 20580  28.4724 347.0829 0001647 206.3818 153.6694 15.29608035774509
SL-16 R/B               
1 20625U 90046B   26076.54398945  .00000041  00000+0  45710-4 0  9997
2 20625  70.9971 281.4179 0016129 289.0955  70.8420 14.15011152849507
COSMOS 2084             
1 20663U 90055A   26076.62515031  .00001737  00000+0  13324-3 0  9993
2 20663  62.7906 308.5130 0015830 192.1604 167.9116 15.05695173937517
SL-6 R/B(2)             
1 20666U 90055D   26076.41915128  .00001776  00000+0  14294-3 0  9994
2 20666  62.7822 227.5634 0026034 348.8994  11.1527 15.03633155939356
SL-8 R/B                
1 20775U 90078B   26076.43680097  .00011095  00000+0  32728-3 0  9993
2 20775  82.9000 244.3409 0360534 347.9210  11.3523 14.89321108810455
SL-8 R/B                
1 21088U 91006B   26076.53156301  .00000076  00000+0  61231-4 0  9999
2 21088  82.9460 164.2162 0022602  16.9308 353.8385 13.77495292765159
OKEAN-3                 
1 21397U 91039A   26076.65830763  .00002176  00000+0  15179-3 0  9994
2 21397  82.5198 329.1249 0013149 307.4541  52.5489 15.04862760866236
COSMOS 2151             
1 21422U 91042A   26076.55429725  .00001995  00000+0  15754-3 0  9995
2 21422  82.4930  76.0871 0013489  39.5486 320.6720 15.00137723864375
SL-14 R/B               
1 21423U 91042B   26076.65823985  .00000455  00000+0  54572-4 0  9995
2 21423  82.4938 212.7104 0016272 210.7236 149.3027 14.81837988854251
ERS-1                   
1 21574U 91050A   26076.06548758  .00000268  00000+0  10044-3 0  9995
2 21574  98.7875  94.4854 0032032 178.4627 181.6664 14.39455000816798
ARIANE 40 R/B           
1 21610U 91050F   26076.58430926  .00000272  00000+0  93885-4 0  9990
2 21610  98.1995 128.5240 0004116  64.0270 296.1345 14.42899419820131
INTERCOSMOS 25          
1 21819U 91086A   26076.58261129  .00001611  00000+0  30850-3 0  9997
2 21819  82.6040 305.2378 1486831  99.9293 277.2314 12.12028288497643
SL-8 R/B                
1 21876U 92008B   26076.49603596  .00000006  00000+0 -94539-5 0  9997
2 21876  82.9222 261.9694 0035817 112.1907 276.7926 13.75969695710493
SL-8 R/B                
1 21938U 92020B   26076.63958300  .00000055  00000+0  41830-4 0  9990
2 21938  82.9324 147.8596 0027528 275.5574 238.5416 13.75550091702220
USA 81                  
1 21949U 92023A   26076.41300554  .00000173  00000+0  56761-4 0  9993
2 21949  85.0070 126.9851 0002257  71.7173 288.4266 14.32370485 95895
COSMOS 2219             
1 22219U 92076A   26076.51439322 -.00000088  00000+0 -21278-4 0  9991
2 22219  71.0641   1.7122 0018523 196.1757 163.8777 14.14093612719484
SL-16 R/B               
1 22220U 92076B   26076.39290946  .00000152  00000+0  99467-4 0  9991
2 22220  71.0006 172.1483 0010578  82.1541 343.8892 14.16859685722924
COSMOS 2221             
1 22236U 92080A   26076.26135681  .00001788  00000+0  15593-3 0  9996
2 22236  82.5002 271.8263 0014675 161.9922 198.1823 14.96231037781921
SL-16 R/B               
1 22285U 92093B   26076.44255223  .00000110  00000+0  80603-4 0  9992
2 22285  71.0240 347.9922 0006278 285.8741  74.1689 14.15447459714257
COSMOS 2228             
1 22286U 92094A   26076.60683439  .00001807  00000+0  15356-3 0  9992
2 22286  82.5164 229.7291 0016567 275.7618  84.1716 14.97230758777241
SL-16 R/B               
1 22566U 93016B   26076.62507768 -.00000241  00000+0 -99405-4 0  9991
2 22566  71.0083 198.5152 0012260 303.7758  56.2196 14.15308302703294
COSMOS 2242             
1 22626U 93024A   26076.52555841  .00001941  00000+0  16801-3 0  9995
2 22626  82.5151 259.2191 0014920 280.1783  79.7756 14.96581751781561
SL-16 R/B               
1 22803U 93059B   26076.52316783  .00000219  00000+0  13203-3 0  9990
2 22803  70.9931 354.6083 0018074 205.0597 154.9651 14.17232591680643
ARIANE 40 R/B           
1 22830U 93061H   26076.58940981  .00000191  00000+0  85624-4 0  9998
2 22830  98.4901 145.3206 0009576 258.9482 101.0626 14.32865115695231
COSMOS 2278             
1 23087U 94023A   26076.58947377 -.00000138  00000+0 -47655-4 0  9993
2 23087  71.0545 158.5718 0008597 359.2074   0.9033 14.14379207645927
SL-16 R/B               
1 23088U 94023B   26076.63240371 -.00000071  00000+0 -12077-4 0  9996
2 23088  70.9991  54.2049 0005546 277.8681  82.1812 14.15009992647213
SL-16 R/B               
1 23343U 94074B   26076.35909251  .00000430  00000+0  64266-4 0  9998
2 23343  97.7098 106.8661 0006371 183.6222 186.8307 14.79416853688380
SL-16 R/B               
1 23405U 94077B   26076.46960964  .00000307  00000+0  18120-3 0  9990
2 23405  70.9851 336.1231 0002642 202.4631 157.6377 14.15564269617336
ARIANE 40+ R/B          
1 23561U 95021B   26076.61993646  .00000255  00000+0  95316-4 0  9998
2 23561  98.4482 147.9946 0007900 115.7230  47.0988 14.39778129620385
SL-16 R/B               
1 23705U 95058B   26076.47697026  .00000133  00000+0  92442-4 0  9997
2 23705  71.0223 163.9069 0010422 111.6550 248.5684 14.15500016568959
SL-16 R/B               
1 24298U 96051B   26076.46058277  .00000076  00000+0  67834-4 0  9990
2 24298  70.7600 158.7921 0014425 135.9266 224.3007 14.12417668522746
ORBVIEW 2 (SEASTAR)     
1 24883U 97037A   26076.43361026  .00000243  00000+0  10087-3 0  9994
2 24883  98.8580 240.9510 0002880  56.0320 304.1138 14.35500521509583
SL-16 R/B               
1 25400U 98043G   26076.58988561  .00000051  00000+0  40261-4 0  9998
2 25400  98.8267  30.0098 0009803 358.1693   1.9449 14.26051610440111
SL-16 R/B               
1 25407U 98045B   26076.48407522  .00000194  00000+0  12224-3 0  9994
2 25407  71.0120 165.1839 0007257 355.8749   4.2314 14.16194301428206
ISS (ZARYA)             
1 25544U 98067A   26076.38694946  .00012661  00000+0  24296-3 0  9991
2 25544  51.6338  34.3055 0006232 201.4845 158.5882 15.48344038557526
CZ-4B R/B               
1 25732U 99025C   26076.58502273  .00000042  00000+0  41019-4 0  9991
2 25732  98.6609 120.6790 0036351 323.6000 190.2016 14.18266933389288
OKEAN-O                 
1 25860U 99039A   26076.62795507  .00000632  00000+0  89733-4 0  9997
2 25860  97.9425 136.4381 0001034  74.9224 285.2102 14.80348502435569
SL-16 R/B               
1 25861U 99039B   26076.60034996  .00000521  00000+0  72812-4 0  9991
2 25861  97.9948 135.6846 0013777 228.2252 131.7784 14.81742528438032
DELTA 2 R/B             
1 25876U 99041E   26076.51204994  .00000799  00000+0  16765-3 0  9998
2 25876  51.7612 270.0340 0502558  11.5057 349.6876 14.11860091364133
HELIOS 1B               
1 25977U 99064A   26076.65030254  .00001560  00000+0  17751-3 0  9999
2 25977  98.1688 339.1273 0002286  63.6260 296.5190 14.87730442686441
TERRA                   
1 25994U 99068A   26076.60874869  .00000387  00000+0  87996-4 0  9990
2 25994  97.9577 129.7404 0003165 134.2195  19.3415 14.61023209396236
SL-16 R/B               
1 26070U 00006B   26076.43086391 -.00000177  00000+0 -65401-4 0  9992
2 26070  71.0003  81.5586 0016334 178.2590 181.8593 14.15824038349658
TITAN 4B R/B            
1 26474U 00047B   26076.58102491  .00003564  00000+0  22545-3 0  9993
2 26474  67.9912  18.3185 0038864  26.0031 334.3059 15.09641935394103
ENVISAT                 
1 27386U 02009A   26076.40919556  .00000102  00000+0  47038-4 0  9995
2 27386  98.3740  29.8233 0001308  82.5384  28.7848 14.39039759260283
IDEFIX & ARIANE 42P R/B 
1 27422U 02021B   26076.53664341  .00000246  00000+0  10985-3 0  9992
2 27422  98.5878  15.0495 0012037 159.0987 201.0691 14.31031580245141
AQUA                    
1 27424U 02022A   26076.62875915  .00000919  00000+0  19322-3 0  9997
2 27424  98.4188  44.1391 0000695 108.1590 339.8195 14.61995972269890
CZ-4B R/B               
1 27432U 02024C   26076.41896183  .00000031  00000+0  38970-4 0  9991
2 27432  98.8822 129.7861 0050102   2.3402   8.0799 14.14548900230330
MIDORI II (ADEOS-II)    
1 27597U 02056A   26076.36420164  .00000270  00000+0  12399-3 0  9995
2 27597  98.7781  34.8954 0001294  33.7265 326.3998 14.29291076211394
H-2A R/B                
1 27601U 02056E   26076.39401002  .00000227  00000+0  93952-4 0  9991
2 27601  98.3216  36.4669 0070937 137.8889 335.5025 14.33765774215212
CZ-4B R/B               
1 28059U 03049C   26076.42934456  .00000319  00000+0  84707-4 0  9990
2 28059  98.6884  71.6382 0047597 206.8717 153.0013 14.55027481187724
CZ-2C R/B               
1 28222U 04012C   26076.60158837  .00047966  00000+0  47736-3 0  9993
2 28222  97.7215 142.6489 0012963 277.3923  82.5862 15.65474299205513
SL-16 R/B               
1 28353U 04021B   26076.37682254 -.00000270  00000+0 -11552-3 0  9993
2 28353  70.9997 216.3598 0004451 359.4299   0.6818 14.14594708123926
CZ-4B R/B               
1 28415U 04035C   26076.56549848  .00006120  00000+0  21576-3 0  9994
2 28415  97.3487 110.7139 0030238 302.3286  57.5027 15.29203901181112
CZ-2C R/B               
1 28480U 04046B   26076.47910160  .00000124  00000+0  60646-4 0  9997
2 28480  98.1981 350.9781 0140301 131.5088 229.8233 14.26994816109614
ARIANE 5 R/B            
1 28499U 04049H   26076.44733517  .00000698  00000+0  83581-4 0  9995
2 28499  98.2639 245.1954 0083397 326.6505  32.9471 14.85280003146949
